[{"OBJECT_NAME":"STARLINK-5559","OBJECT_ID":"2023-058U","EPOCH":"2026-03-09T23:30:37.297440","MEAN_MOTION":15.05646209,"ECCENTRICITY":0.00021088,"INCLINATION":97.6048,"RA_OF_ASC_NODE":71.5561,"ARG_OF_PERICENTER":85.6902,"MEAN_ANOMALY":274.4565,"EPHEMERIS_TYPE":0,"CLASSIFICATION_TYPE":"U","NORAD_CAT_ID":56335,"ELEMENT_SET_NO":999,"REV_AT_EPOCH":15824,"BSTAR":2.3821827e-5,"MEAN_MOTION_DOT":2.83e-6,"MEAN_MOTION_DDOT":0},{"OBJECT_NAME":"SS 1","OBJECT_ID":"1977-112D","EPOCH":"2026-03-09T21:40:15.039840","MEAN_MOTION":13.90217134,"ECCENTRICITY":0.05251109,"INCLINATION":63.3361,"RA_OF_ASC_NODE":274.0361,"ARG_OF_PERICENTER":161.1049,"MEAN_ANOMALY":201.0326,"EPHEMERIS_TYPE":0,"CLASSIFICATION_TYPE":"U","NORAD_CAT_ID":10529,"ELEMENT_SET_NO":999,"REV_AT_EPOCH":33839,"BSTAR":0.00031610815,"MEAN_MOTION_DOT":1.081e-5,"MEAN_MOTION_DDOT":0}]
